GPS BIIA-23 (PRN 18)    
1 22877U 93068A   18194.49759885 -.00000040  00000-0  00000+0 0  9994
2 22877  54.4427  82.4242 0145609  75.5662 241.2539  2.00567063181074
GPS BIIR-2  (PRN 13)    
1 24876U 97035A   18194.45141616  .00000070  00000-0  00000+0 0  9998
2 24876  55.4870 211.7366 0030621  87.7494 272.6500  2.00564685153675
GPS BIIR-3  (PRN 11)    
1 25933U 99055A   18194.49934181 -.00000055  00000-0  00000+0 0  9992
2 25933  51.9055  60.5433 0167639 102.3085 218.5039  2.00566473137496
GPS BIIR-4  (PRN 20)    
1 26360U 00025A   18194.35883275 -.00000003  00000-0  00000+0 0  9991
2 26360  53.2096 138.5760 0037953 118.9167 147.6241  2.00563604133181
GPS BIIR-5  (PRN 28)    
1 26407U 00040A   18194.51050448 -.00000066  00000-0  00000+0 0  9995
2 26407  56.4667 329.8669 0196899 272.9026  81.6080  2.00562791131862
GPS BIIR-6  (PRN 14)    
1 26605U 00071A   18194.37138830  .00000070  00000-0  00000+0 0  9999
2 26605  55.0604 209.3210 0102532 248.9368 270.4299  2.00571495129458
GPS BIIR-8  (PRN 16)    
1 27663U 03005A   18193.60301044 -.00000065  00000-0  00000+0 0  9993
2 27663  56.5312 329.6611 0098796  28.8580 150.3776  2.00565319113203
GPS BIIR-9  (PRN 21)    
1 27704U 03010A   18194.36207803 -.00000041  00000-0  00000+0 0  9991
2 27704  54.1135  82.0075 0245771 271.5722  54.9812  2.00563550112026
GPS BIIR-10 (PRN 22)    
1 28129U 03058A   18193.14889889  .00000002  00000-0  00000+0 0  9996
2 28129  53.0224 141.4762 0075182 273.2962  85.8056  2.00551850106699
GPS BIIR-11 (PRN 19)    
1 28190U 04009A   18194.16346924 -.00000057  00000-0  00000+0 0  9993
2 28190  56.1821  30.4787 0096446  70.0151 300.8170  2.00558607104891
GPS BIIR-12 (PRN 23)    
1 28361U 04023A   18194.36745317  .00000066  00000-0  00000+0 0  9999
2 28361  54.0620 204.0349 0128039 226.4275 208.4759  2.00552144102980
GPS BIIR-13 (PRN 02)    
1 28474U 04045A   18194.14859576 -.00000040  00000-0  00000+0 0  9990
2 28474  54.4812  81.6399 0181379 254.5077  21.8153  2.00551798100341
GPS BIIRM-1 (PRN 17)    
1 28874U 05038A   18194.41554168 -.00000060  00000-0  00000+0 0  9998
2 28874  56.3224  27.7821 0126005 258.3576 317.7546  2.00574386 93752
GPS BIIRM-2 (PRN 31)    
1 29486U 06042A   18194.43624708  .00000021  00000-0  00000+0 0  9990
2 29486  55.1642 266.6176 0087926 351.2945 164.0482  2.00560936 86469
GPS BIIRM-3 (PRN 12)    
1 29601U 06052A   18194.16341867 -.00000065  00000-0  00000+0 0  9991
2 29601  56.5069 328.5560 0069458  56.5227 304.1348  2.00577218 85377
GPS BIIRM-4 (PRN 15)    
1 32260U 07047A   18193.98734065  .00000067  00000-0  00000+0 0  9997
2 32260  53.1865 200.0491 0102253  38.2782 322.4694  2.00551233 78750
GPS BIIRM-5 (PRN 29)    
1 32384U 07062A   18194.30610288 -.00000059  00000-0  00000+0 0  9990
2 32384  56.3970  28.3976 0006123  74.3587 291.5201  2.00564917 77494
GPS BIIRM-6 (PRN 07)    
1 32711U 08012A   18194.39515323  .00000022  00000-0  00000+0 0  9992
2 32711  54.8985 265.8916 0120261 216.8441 142.4082  2.00565842 75678
GPS BIIRM-8 (PRN 05)    
1 35752U 09043A   18194.15524091  .00000004  00000-0  00000+0 0  9991
2 35752  54.3269 143.6587 0053492  34.2214 181.7404  2.00555230 65251
GPS BIIF-1  (PRN 25)    
1 36585U 10022A   18194.07249539 -.00000063  00000-0  00000+0 0  9993
2 36585  55.7967 325.1029 0072943  48.7331 211.2963  2.00569823 59497
GPS BIIF-2  (PRN 01)    
1 37753U 11036A   18194.49916111 -.00000036  00000-0  00000+0 0  9990
2 37753  55.6805  85.1841 0078444  36.4180 257.9246  2.00564349 51196
GPS BIIF-3  (PRN 24)    
1 38833U 12053A   18194.07709775  .00000028  00000-0  00000+0 0  9990
2 38833  53.9291 262.4361 0068825  29.2055 331.2645  2.00567152 42257
GPS BIIF-4  (PRN 27)    
1 39166U 13023A   18194.43423896 -.00000062  00000-0  00000+0 0  9994
2 39166  56.0187  24.6691 0059125  23.7148 336.5994  2.00562268 37795
GPS BIIF-5  (PRN 30)    
1 39533U 14008A   18193.93560433  .00000020  00000-0  00000+0 0  9992
2 39533  54.0728 267.7955 0035996 190.1203 169.8882  2.00558265 32145
GPS BIIF-6  (PRN 06)    
1 39741U 14026A   18193.71486836 -.00000037  00000-0  00000+0 0  9992
2 39741  55.6633  84.7382 0012704 294.9115  65.0083  2.00565220 30424
GPS BIIF-7  (PRN 09)    
1 40105U 14045A   18194.30448100  .00000068  00000-0  00000+0 0  9990
2 40105  54.5879 204.1562 0006719 110.6380 249.4674  2.00573417 28883
GPS BIIF-8  (PRN 03)    
1 40294U 14068A   18194.17834456  .00000007  00000-0  00000+0 0  9995
2 40294  55.0781 144.9449 0014411  19.8455 340.1700  2.00557772 27105
GPS BIIF-9  (PRN 26)    
1 40534U 15013A   18192.81713110 -.00000064  00000-0  00000+0 0  9999
2 40534  54.7377 323.8485 0027709   1.8514 358.1570  2.00562111 24146
GPS BIIF-10  (PRN 08)   
1 40730U 15033A   18193.97712436 -.00000061  00000-0  00000+0 0  9994
2 40730  55.5485  24.1815 0035531 333.5087  26.3528  2.00573061 21929
GPS BIIF-11  (PRN 10)   
1 41019U 15062A   18192.03311939  .00000016  00000-0  00000+0 0  9995
2 41019  55.0825 144.8338 0037153 205.4529 154.3285  2.00564272 19702
GPS BIIF-12  (PRN 32)   
1 41328U 16007A   18194.11518005  .00000071  00000-0  00000+0 0  9993
2 41328  54.8380 204.4611 0024052 219.7277 140.1313  2.00562134 17806
